IRIDIUM 26              
1 24903U 97043A   25243.59038709  .00000574  00000+0  18639-3 0  9993
2 24903  86.3897  78.9254 0002060  94.0005 266.1428 14.37193394467574
IRIDIUM 22              
1 24907U 97043E   25243.58265401  .00000517  00000+0  17136-3 0  9995
2 24907  86.3902  82.5362 0002191  90.2207 269.9240 14.36001045467598
DUMMY MASS 1            
1 24925U 97048A   25243.58408810  .00000600  00000+0  63816-4 0  9993
2 24925  86.3306 100.4633 0004719 224.7411 135.3434 14.87039307516332
DUMMY MASS 2            
1 24926U 97048B   25243.62610281  .00000585  00000+0  62556-4 0  9998
2 24926  86.3310 102.0664 0005210 242.9325 117.1369 14.86791225516117
IRIDIUM 29              
1 24944U 97051A   25243.57859344  .00000581  00000+0  19127-3 0  9992
2 24944  86.3936 112.2801 0002253  82.0970 278.0483 14.36520661464092
IRIDIUM 33              
1 24946U 97051C   25243.57366342  .00000340  00000+0  11261-3 0  9999
2 24946  86.3849 111.5485 0007563 176.9347 183.1897 14.34931165463555
IRIDIUM 28              
1 24948U 97051E   25243.57406768  .00000481  00000+0  15454-3 0  9992
2 24948  86.3936 109.7533 0001997 100.7520 259.3902 14.37430137464673
IRIDIUM 36              
1 24967U 97056C   25243.45597135  .00000476  00000+0  15190-3 0  9995
2 24967  86.4008 141.4097 0002305  90.5875 269.5587 14.37657937463036
